#dP2018  6 25  0  0  0.00000000      96 __u+U ITR00 FIT  IAC
## 2007  86400.00000000   900.00000000 58294 0.0000000000000
+   84   C01C02C03C05C06C07C08C09C10C11C12C13C14E01E02E03E04
+        E05E07E08E09E11E12E14E18E19E24E26E30G01G02G03G05G06
+        G07G08G09G10G11G12G13G14G15G16G17G18G19G20G21G22G23
+        G24G25G26G27G28G29G30G31G32J01R01R02R03R04R05R07R08
+        R09R10R11R13R14R15R16R17R18R19R20R21R22R23R24R26  0
++        13 11 12 12  9  9  9  8  8  8  8  9  8  7  6  6  7
++         6  6  6  7  7  7  7  7  7  6  6  6  4  3  4  3  3
++         3  4  3  4  4  4  4  3  4  4  3  4  4  4  3  4  3
++         4  4  4  4  4  3  3  4  3 10  6  5  5  5  6  6  6
++         5  5  5  5  5  5  6  5  5  5  5  5  5  5  6  8  0
%c M  cc GPS ccc cccc cccc cccc cccc ccccc ccccc ccccc ccccc
%c cc cc ccc ccc cccc cccc cccc cccc ccccc ccccc ccccc ccccc
%f  0.0000000  0.000000000  0.00000000000  0.000000000000000
%f  0.0000000  0.000000000  0.00000000000  0.000000000000000
%i    0    0    0    0      0      0      0      0         0
%i    0    0    0    0      0      0      0      0         0
/* INFORMATION & ANALYSIS CENTER (IAC) OF MCC   (RAPID DATA)
/* S/V CLOCKS ARE ALIGNED TO GPS & GLONASS TIME RESPECTIVELY
/* USING THE BROADCAST EPHEMERIS                            
/* PCV:IGS14_2000 OL/AL:FES2004  NONE     YN ORB:CoN CLK:CoN
*  2018 06 25  2 30  0.00000000
PC01 -32214.988616  27168.799084   1102.637492    256.304897
PC02   4445.896843  41916.545835   -994.330765    121.276984
PC03 -14839.965324  39436.494063    690.061732    309.598203
PC05  21912.421708  35996.781882   -851.981681    344.496111
PC06  -7024.483095  29335.464692 -29051.657522     68.437579
PC07 -21624.021512  22834.724303  27984.850037     94.623477
PC08 -20423.086532  37032.171795    501.680754    407.213470
PC09   4513.361553  37083.869537 -19041.440969     -7.547119
PC10  -3354.523895  25701.881919  33334.201363   -335.679454
PC11   3226.023404  27167.655529  -5640.414345   -563.880415
PC12  -8654.577743  23355.822458  12723.998498    490.363082
PC13 -11475.789072  38937.553800 -11836.240944   -391.310258
PC14   9244.137144  19590.210623 -17500.974515    132.447152
PE01  -3447.653951  16570.042803  24279.640025   -376.170429
PE02   3423.886291 -16572.205841 -24288.671266     17.300437
PE03  -5097.807483 -24463.361101  15867.483933    -47.206276
PE04  19332.723581  22358.024433   1590.140349    -61.925620
PE05  12159.635822 -12234.248260  24065.032408    239.969379
PE07 -22252.964688  -7128.192126 -18150.249389      9.384666
PE08 -19513.840385 -22194.335270  -1555.728585   6557.322478
PE09  22261.106312   7015.248387  18227.501007   6753.543849
PE11  18045.271061  -3754.063020 -23173.267823   1604.975457
PE12   9108.209931  17611.416560 -21970.803931   4457.619907
PE14  14161.678453 -19536.356792 -21511.725982   6561.582464
PE18  -6627.561573  19546.615414  12146.321938   6107.668121
PE19   3632.838217  23792.462332 -17215.267725     23.575487
PE24  29174.658773  -1272.224190   4800.825360   6635.244379
PE26 -16377.498233  22097.201482  10938.291253   5783.715785
PE30 -18263.605079 -10879.440713 -20607.732101   5730.928207
PG01 -11444.439962  21425.617429 -10525.088990    -59.469420
PG02  20706.943722 -13020.816424  -9487.787309     76.233077
PG03  -3802.880554  14740.895060 -21786.252187     94.955130
PG05  22880.402150  -3991.668646  12973.155765     -5.611680
PG06  17800.370516   1131.267346 -19657.560056    393.168235
PG07   3215.649328  16811.556473  20410.473446    169.720640
PG08  -7546.576110  18214.271196  17766.032434   -105.946904
PG09   7761.197711  25378.956650    837.003757    514.479455
PG10 -23270.443784 -11079.499290   6800.419087    188.660691
PG11  -8394.725594  25278.078253  -1408.311669   -732.666485
PG12   8821.927820 -12360.061787 -21960.333067    325.217722
PG13  13017.745423  -9974.530298  20784.996104    -93.153995
PG14 -15607.070182  -6027.927499 -20367.409309    -97.493056
PG15   5294.747912 -20306.319746  15837.560044   -352.015885
PG16 -23420.515462    560.312187  12747.147900     20.209553
PG17  14057.044578  15961.228930 -15598.920395    -84.846268
PG18 -16587.701378  20530.089493  -2341.003220     25.746594
PG19  15296.937051   6987.067020 -20813.268506   -425.724796
PG20 -16809.751638 -13960.141120  15040.345777    511.205104
PG21  -7516.570670 -14862.693150  21496.419281   -376.716159
PG22 -12931.342352  12295.448221 -19426.651095   -436.940875
PG23   -626.428135  24271.539468  -9955.523731   -215.425787
PG24  13470.271637 -21769.892311  -6600.649868    -51.666389
PG25  -7210.052603 -16110.914139 -20101.590798   -606.129906
PG26 -26114.056237  -4371.137792   2868.965723   -104.708961
PG27 -13717.215209   5818.206056  21890.423944    364.423546
PG28  20320.270871  14336.860362   9871.349116    726.323393
PG29  -4507.240822 -26155.491331  -1191.655963    426.443200
PG30  12277.718817   9812.757243  21432.637349     58.487156
PG31 -19191.053531    406.724439 -18497.722135    112.252388
PG32 -15426.640734 -15256.900323 -15337.565405   -487.941217
PJ01 -27126.361985  16885.929620 -22833.452205   -205.815164
PR01  -9544.820387   6371.824616 -22770.328630     28.144262
PR02   8108.700093  17521.894364 -16598.937506    316.474619
PR03  19084.877215  16884.604166   -468.122747    135.921284
PR04  18755.438847   6015.300619  16222.378046    266.077392
PR05   7731.925936  -8024.261811  22944.277316    -29.731213
PR07 -19201.059318 -16819.781100    161.087890    -40.859009
PR08 -18984.288770  -6625.364850 -15639.711992     22.565075
PR09   2882.551414 -12243.770771 -22190.253511     22.436261
PR10 -14489.472495  -5076.884215 -20363.928997     26.675645
PR11 -24227.321981   5061.938964  -6051.644453    -32.523806
PR13  -2720.487546  12030.733252  22306.200693    -11.790854
PR14  14531.336591   5257.969187  20310.158415     28.479481
PR15  23231.658083  -2846.843043  10033.394524    -12.196457
PR16  19591.919882 -12339.231081 -10606.538453     95.607181
PR17   5835.547191  15801.130621 -19164.317004    142.817729
PR18  11047.035438  -1934.335863 -22907.392388    200.519782
PR19  10562.774885 -18572.854588 -13939.767576    -55.345019
PR20   3462.526654 -24892.894128   4520.935931   -342.829337
PR21  -5955.169868 -15429.252648  19408.068739     10.291482
PR22 -11241.403340   3991.128827  22526.420984    -53.861241
PR23  -9201.699672  21342.776314  10493.617005    161.788367
PR24  -2484.262348  24770.014150  -5551.706056   -168.037823
PR26   3379.832251 -25010.343416   3636.635479     29.098683
EOF
